STARLINK-1661           
1 46355U 20062AG  26068.14213265  .00016603  00000+0  57075-3 0  9991
2 46355  53.1612  13.5256 0001035  95.5841 264.5278 15.30239796304316
TRANSPORTER-11 OBJECT A 
1 60468U 24149A   26068.74646182  .00010774  00000+0  36054-3 0  9993
2 60468  97.3780 149.0949 0003110 191.0010 169.1164 15.31141332 86830
